*******************************************************************************
JPL/HORIZONS               744 Aguntina (A913 DE)          2023-Sep-04 11:08:04
Rec #:     744 (+COV) Soln.date: 2023-Aug-24_15:45:23   # obs: 4947 (1913-2023)
 
IAU76/J2000 helio. ecliptic osc. elements (au, days, deg., period=Julian yrs):
 
  EPOCH=  2457077.5 ! 2015-Feb-24.00 (TDB)         Residual RMS= .26235
   EC= .1189477479788784   QR= 2.79486152527823    TP= 2457100.9506907128
   OM= 142.6658626736382   W=  28.64233044056795   IN= 7.715888652898442
   A= 3.172185893477778    MA= 355.9090726359249   ADIST= 3.549510261677326
   PER= 5.64997            N= .174448054           ANGMOM= .03042051
   DAN= 2.8317             DDN= 3.49182            L= 171.0895075
   B= 3.6899183            MOID= 1.80451           TP= 2015-Mar-19.4506907128
 
Asteroid physical parameters (km, seconds, rotational period in hours):
   GM= n.a.                RAD= 29.318             ROTPER= 17.47
   H= 10.42                G= .150                 B-V= .657
                           ALBEDO= .031            STYP= FX:

ASTEROID comments: 
1: soln ref.= JPL#63, OCC=0
2: source=ORB
*******************************************************************************


*******************************************************************************
Ephemeris / API_USER Mon Sep  4 11:08:04 2023 Pasadena, USA      / Horizons
*******************************************************************************
Target body name: 744 Aguntina (A913 DE)          {source: JPL#63}
Center body name: Solar System Barycenter (0)     {source: DE441}
Center-site name: BODY CENTER
*******************************************************************************
Start time      : A.D. 2023-Aug-12 00:00:00.0000 TDB
Stop  time      : A.D. 2023-Aug-13 00:00:00.0000 TDB
Step-size       : 2880 minutes
*******************************************************************************
Center geodetic : 0.0, 0.0, 0.0                   {E-lon(deg),Lat(deg),Alt(km)}
Center cylindric: 0.0, 0.0, 0.0                   {E-lon(deg),Dxy(km),Dz(km)}
Center radii    : (undefined)
Small perturbers: Yes                             {source: SB441-N16}
Output units    : KM-S
Calendar mode   : Mixed Julian/Gregorian
Output type     : GEOMETRIC cartesian states
Output format   : 2 (position and velocity)
Reference frame : Ecliptic of J2000.0
*******************************************************************************
Initial IAU76/J2000 heliocentric ecliptic osculating elements (au, days, deg.):
  EPOCH=  2457077.5 ! 2015-Feb-24.00 (TDB)         Residual RMS= .26235        
   EC= .1189477479788784   QR= 2.79486152527823    TP= 2457100.9506907128      
   OM= 142.6658626736382   W=  28.64233044056795   IN= 7.715888652898442       
  Equivalent ICRF heliocentric cartesian coordinates (au, au/d):
   X=-2.707850490252361E+00  Y= 5.652767552490241E-01  Z= 4.076522541104267E-01
  VX=-2.460834916679014E-03 VY=-1.017718244567725E-02 VZ=-2.957462912675022E-03
Asteroid physical parameters (km, seconds, rotational period in hours):        
   GM= n.a.                RAD= 29.318             ROTPER= 17.47               
   H= 10.42                G= .150                 B-V= .657                   
                           ALBEDO= .031            STYP= FX:                   
*******************************************************************************
JDTDB
   X     Y     Z
   VX    VY    VZ
*******************************************************************************
$$SOE
2460168.500000000 = A.D. 2023-Aug-12 00:00:00.0000 TDB 
 X = 5.144417300095986E+08 Y =-1.155550617507388E+08 Z =-2.994537972688410E+07
 VX= 3.251745731961371E+00 VY= 1.440606554769480E+01 VZ=-1.819087954653252E+00
$$EOE
*******************************************************************************
 
TIME

  Barycentric Dynamical Time ("TDB" or T_eph) output was requested. This
continuous coordinate time is equivalent to the relativistic proper time
of a clock at rest in a reference frame co-moving with the solar system
barycenter but outside the system's gravity well. It is the independent
variable in the solar system relativistic equations of motion.

  TDB runs at a uniform rate of one SI second per second and is independent
of irregularities in Earth's rotation.
 
CALENDAR SYSTEM

  Mixed calendar mode was active such that calendar dates after AD 1582-Oct-15
(if any) are in the modern Gregorian system. Dates prior to 1582-Oct-5 (if any)
are in the Julian calendar system, which is automatically extended for dates
prior to its adoption on 45-Jan-1 BC.  The Julian calendar is useful for
matching historical dates. The Gregorian calendar more accurately corresponds
to the Earth's orbital motion and seasons. A "Gregorian-only" calendar mode is
available if such physical events are the primary interest.

REFERENCE FRAME AND COORDINATES

  Ecliptic at the standard reference epoch

    Reference epoch: J2000.0
    X-Y plane: adopted Earth orbital plane at the reference epoch
               Note: IAU76 obliquity of 84381.448 arcseconds wrt ICRF X-Y plane
    X-axis   : ICRF
    Z-axis   : perpendicular to the X-Y plane in the directional (+ or -) sense
               of Earth's north pole at the reference epoch.

  Symbol meaning:

    JDTDB    Julian Day Number, Barycentric Dynamical Time
      X      X-component of position vector (km)
      Y      Y-component of position vector (km)
      Z      Z-component of position vector (km)
      VX     X-component of velocity vector (km/sec)                           
      VY     Y-component of velocity vector (km/sec)                           
      VZ     Z-component of velocity vector (km/sec)                           

ABERRATIONS AND CORRECTIONS

 Geometric state vectors have NO corrections or aberrations applied.

Computations by ...

    Solar System Dynamics Group, Horizons On-Line Ephemeris System
    4800 Oak Grove Drive, Jet Propulsion Laboratory
    Pasadena, CA  91109   USA

    General site: https://ssd.jpl.nasa.gov/
    Mailing list: https://ssd.jpl.nasa.gov/email_list.html
    System news : https://ssd.jpl.nasa.gov/horizons/news.html
    User Guide  : https://ssd.jpl.nasa.gov/horizons/manual.html
    Connect     : browser        https://ssd.jpl.nasa.gov/horizons/app.html#/x
                  API            https://ssd-api.jpl.nasa.gov/doc/horizons.html
                  command-line   telnet ssd.jpl.nasa.gov 6775
                  e-mail/batch   https://ssd.jpl.nasa.gov/ftp/ssd/hrzn_batch.txt
                  scripts        https://ssd.jpl.nasa.gov/ftp/ssd/SCRIPTS
    Author      : Jon.D.Giorgini@jpl.nasa.gov
*******************************************************************************
